{
  "type": "FeatureCollection",
  "features": [
    {
      "type": "Feature",
      "properties": {
        "norad_id": 39773,
        "name": "EUTELSAT 3B",
        "group": "eutelsat",
        "lat": 0.08212449505095752,
        "lon": 72.63385996735315,
        "alt_km": 35802.40439958435,
        "timestamp": "2025-12-20T22:39:10.316790+00:00",
        "meta_object_name": "EUTELSAT 3B",
        "meta_object_id": "2014-030A",
        "meta_epoch": "2025-12-20T06:23:47.880096",
        "meta_mean_motion": 1.0027252,
        "meta_eccentricity": 0.00041648,
        "meta_inclination": 0.0609,
        "meta_ra_of_asc_node": 6.0714,
        "meta_arg_of_pericenter": 226.7459,
        "meta_mean_anomaly": 315.3284,
        "meta_ephemeris_type": 0,
        "meta_classification_type": "U",
        "meta_norad_cat_id": 39773,
        "meta_element_set_no": 999,
        "meta_rev_at_epoch": 4227,
        "meta_bstar": 0,
        "meta_mean_motion_dot": 4.4e-07,
        "meta_mean_motion_ddot": 0,
        "tle_line1": "1 39773U 14030A   25354.26652639  .00000044  00000+0  00000+0 0  9991",
        "tle_line2": "2 39773   0.0609   6.0714 0004164 226.7459 315.3284  1.00272520 42274"
      },
      "geometry": {
        "type": "Point",
        "coordinates": [
          72.63385996735315,
          0.08212449505095752
        ]
      }
    },
    {
      "type": "Feature",
      "properties": {
        "norad_id": 40425,
        "name": "EUTELSAT 115 WEST B",
        "group": "eutelsat",
        "lat": 0.006855526790884853,
        "lon": -45.30713365146946,
        "alt_km": 35780.58973966767,
        "timestamp": "2025-12-20T22:39:10.316801+00:00",
        "meta_object_name": "EUTELSAT 115 WEST B",
        "meta_object_id": "2015-010B",
        "meta_epoch": "2025-12-20T10:15:38.712960",
        "meta_mean_motion": 1.00282263,
        "meta_eccentricity": 8.594e-05,
        "meta_inclination": 0.012,
        "meta_ra_of_asc_node": 150.9289,
        "meta_arg_of_pericenter": 117.9576,
        "meta_mean_anomaly": 219.3981,
        "meta_ephemeris_type": 0,
        "meta_classification_type": "U",
        "meta_norad_cat_id": 40425,
        "meta_element_set_no": 999,
        "meta_rev_at_epoch": 3960,
        "meta_bstar": 0,
        "meta_mean_motion_dot": -3e-08,
        "meta_mean_motion_ddot": 0,
        "tle_line1": "1 40425U 15010B   25354.42753140 -.00000003  00000+0  00000+0 0  9999",
        "tle_line2": "2 40425   0.0120 150.9289 0000859 117.9576 219.3981  1.00282263 39607"
      },
      "geometry": {
        "type": "Point",
        "coordinates": [
          -45.30713365146946,
          0.006855526790884853
        ]
      }
    },
    {
      "type": "Feature",
      "properties": {
        "norad_id": 40875,
        "name": "EUTELSAT 8 WEST B",
        "group": "eutelsat",
        "lat": 0.08139044309476375,
        "lon": 61.582153352057496,
        "alt_km": 35802.22501682304,
        "timestamp": "2025-12-20T22:39:10.316811+00:00",
        "meta_object_name": "EUTELSAT 8 WEST B",
        "meta_object_id": "2015-039B",
        "meta_epoch": "2025-12-20T06:20:40.678944",
        "meta_mean_motion": 1.00271049,
        "meta_eccentricity": 0.00042772,
        "meta_inclination": 0.0633,
        "meta_ra_of_asc_node": 357.6804,
        "meta_arg_of_pericenter": 272.2572,
        "meta_mean_anomaly": 266.3389,
        "meta_ephemeris_type": 0,
        "meta_classification_type": "U",
        "meta_norad_cat_id": 40875,
        "meta_element_set_no": 999,
        "meta_rev_at_epoch": 3786,
        "meta_bstar": 0,
        "meta_mean_motion_dot": -4.2e-07,
        "meta_mean_motion_ddot": 0,
        "tle_line1": "1 40875U 15039B   25354.26435971 -.00000042  00000+0  00000+0 0  9993",
        "tle_line2": "2 40875   0.0633 357.6804 0004277 272.2572 266.3389  1.00271049 37863"
      },
      "geometry": {
        "type": "Point",
        "coordinates": [
          61.582153352057496,
          0.08139044309476375
        ]
      }
    },
    {
      "type": "Feature",
      "properties": {
        "norad_id": 41310,
        "name": "EUTELSAT 9B",
        "group": "eutelsat",
        "lat": 0.030771727638698728,
        "lon": 78.56506444001577,
        "alt_km": 35803.93025689572,
        "timestamp": "2025-12-20T22:39:10.316822+00:00",
        "meta_object_name": "EUTELSAT 9B",
        "meta_object_id": "2016-005A",
        "meta_epoch": "2025-12-20T06:25:32.712672",
        "meta_mean_motion": 1.00272606,
        "meta_eccentricity": 0.00044657,
        "meta_inclination": 0.0619,
        "meta_ra_of_asc_node": 71.3783,
        "meta_arg_of_pericenter": 203.8271,
        "meta_mean_anomaly": 279.2785,
        "meta_ephemeris_type": 0,
        "meta_classification_type": "U",
        "meta_norad_cat_id": 41310,
        "meta_element_set_no": 999,
        "meta_rev_at_epoch": 3632,
        "meta_bstar": 0,
        "meta_mean_motion_dot": 8.6e-07,
        "meta_mean_motion_ddot": 0,
        "tle_line1": "1 41310U 16005A   25354.26773973  .00000086  00000+0  00000+0 0  9996",
        "tle_line2": "2 41310   0.0619  71.3783 0004465 203.8271 279.2785  1.00272606 36326"
      },
      "geometry": {
        "type": "Point",
        "coordinates": [
          78.56506444001577,
          0.030771727638698728
        ]
      }
    },
    {
      "type": "Feature",
      "properties": {
        "norad_id": 41382,
        "name": "EUTELSAT 65 WEST A",
        "group": "eutelsat",
        "lat": 0.032979417266100555,
        "lon": 4.378722803262115,
        "alt_km": 35785.81764825176,
        "timestamp": "2025-12-20T22:39:10.316833+00:00",
        "meta_object_name": "EUTELSAT 65 WEST A",
        "meta_object_id": "2016-014A",
        "meta_epoch": "2025-12-20T12:11:56.059872",
        "meta_mean_motion": 1.00274098,
        "meta_eccentricity": 0.00021262,
        "meta_inclination": 0.0531,
        "meta_ra_of_asc_node": 332.5457,
        "meta_arg_of_pericenter": 299.6885,
        "meta_mean_anomaly": 294.8871,
        "meta_ephemeris_type": 0,
        "meta_classification_type": "U",
        "meta_norad_cat_id": 41382,
        "meta_element_set_no": 999,
        "meta_rev_at_epoch": 3574,
        "meta_bstar": 0,
        "meta_mean_motion_dot": -2.53e-06,
        "meta_mean_motion_ddot": 0,
        "tle_line1": "1 41382U 16014A   25354.50828773 -.00000253  00000+0  00000+0 0  9998",
        "tle_line2": "2 41382   0.0531 332.5457 0002126 299.6885 294.8871  1.00274098 35745"
      },
      "geometry": {
        "type": "Point",
        "coordinates": [
          4.378722803262115,
          0.032979417266100555
        ]
      }
    },
    {
      "type": "Feature",
      "properties": {
        "norad_id": 41589,
        "name": "EUTELSAT 117 WEST B",
        "group": "eutelsat",
        "lat": 0.006575658281253297,
        "lon": -47.410719859988234,
        "alt_km": 35782.53608882863,
        "timestamp": "2025-12-20T22:39:10.316843+00:00",
        "meta_object_name": "EUTELSAT 117 WEST B",
        "meta_object_id": "2016-038B",
        "meta_epoch": "2025-12-20T10:15:38.712960",
        "meta_mean_motion": 1.0027683,
        "meta_eccentricity": 6.122e-05,
        "meta_inclination": 0.0138,
        "meta_ra_of_asc_node": 152.9608,
        "meta_arg_of_pericenter": 124.2056,
        "meta_mean_anomaly": 209.0277,
        "meta_ephemeris_type": 0,
        "meta_classification_type": "U",
        "meta_norad_cat_id": 41589,
        "meta_element_set_no": 999,
        "meta_rev_at_epoch": 3487,
        "meta_bstar": 0,
        "meta_mean_motion_dot": 1.1e-07,
        "meta_mean_motion_ddot": 0,
        "tle_line1": "1 41589U 16038B   25354.42753140  .00000011  00000+0  00000+0 0  9990",
        "tle_line2": "2 41589   0.0138 152.9608 0000612 124.2056 209.0277  1.00276830 34877"
      },
      "geometry": {
        "type": "Point",
        "coordinates": [
          -47.410719859988234,
          0.006575658281253297
        ]
      }
    },
    {
      "type": "Feature",
      "properties": {
        "norad_id": 42741,
        "name": "EUTELSAT 172B",
        "group": "eutelsat",
        "lat": -0.005568410095924438,
        "lon": -118.4487076237352,
        "alt_km": 35787.58095996306,
        "timestamp": "2025-12-20T22:39:10.316853+00:00",
        "meta_object_name": "EUTELSAT 172B",
        "meta_object_id": "2017-029B",
        "meta_epoch": "2025-12-20T11:32:38.877792",
        "meta_mean_motion": 1.00270576,
        "meta_eccentricity": 3.078e-05,
        "meta_inclination": 0.0366,
        "meta_ra_of_asc_node": 126.084,
        "meta_arg_of_pericenter": 270.789,
        "meta_mean_anomaly": 37.6034,
        "meta_ephemeris_type": 0,
        "meta_classification_type": "U",
        "meta_norad_cat_id": 42741,
        "meta_element_set_no": 999,
        "meta_rev_at_epoch": 3193,
        "meta_bstar": 0,
        "meta_mean_motion_dot": 1.8e-07,
        "meta_mean_motion_ddot": 0,
        "tle_line1": "1 42741U 17029B   25354.48100553  .00000018  00000+0  00000+0 0  9999",
        "tle_line2": "2 42741   0.0366 126.0840 0000307 270.7890  37.6034  1.00270576 31936"
      },
      "geometry": {
        "type": "Point",
        "coordinates": [
          -118.4487076237352,
          -0.005568410095924438
        ]
      }
    }
  ]
}